start=new Date('2023-01-31T00:00:00.000Z').valueOf();
sats=[{"SEMIMAJOR_AXIS":"6917.900","MEAN_ANOMALY":"283.2576","PERIAPSIS":"538.915","LAUNCH_DATE":"2022-09-05","CENTER_NAME":"EARTH","INCLINATION":"53.2183","ARG_OF_PERICENTER":"76.8553","GP_ID":"224057629","REV_AT_EPOCH":"2339","MEAN_MOTION":"15.08833528","FILE":"3765849","EPHEMERIS_TYPE":"0","NORAD_CAT_ID":"53727","APOAPSIS":"540.615","RCS_SIZE":"LARGE","RA_OF_ASC_NODE":"303.7830","TIME_SYSTEM":"UTC","TLE_LINE1":"1 53727U 22107AD  23030.92433129 -.00000840  00000-0 -34718-4 0  9998","SITE":"AFETR","OBJECT_TYPE":"PAYLOAD","ELEMENT_SET_NO":"999","EPOCH":"2023-01-30T22:11:02.223456","OBJECT_ID":"2022-107AD","REF_FRAME":"TEME","DECAY_DATE":null,"OBJECT_NAME":"STARLINK-4701","MEAN_MOTION_DDOT":"0.0000000000000","MEAN_ELEMENT_THEORY":"SGP4","COUNTRY_CODE":"US","MEAN_MOTION_DOT":"-0.00000840","BSTAR":"-0.00003471800000","TLE_LINE2":"2 53727  53.2183 303.7830 0001229  76.8553 283.2576 15.08833528 23393","PERIOD":"95.438","ECCENTRICITY":"0.00012290","CLASSIFICATION_TYPE":"U"},{"BSTAR":"-0.00000379790000","MEAN_MOTION_DOT":"-0.00000348","COUNTRY_CODE":"US","MEAN_MOTION_DDOT":"0.0000000000000","MEAN_ELEMENT_THEORY":"SGP4","OBJECT_NAME":"STARLINK-4640","DECAY_DATE":null,"REF_FRAME":"TEME","EPOCH":"2023-01-30T22:05:43.434240","OBJECT_ID":"2022-107AE","CLASSIFICATION_TYPE":"U","ECCENTRICITY":"0.00013010","PERIOD":"95.438","TLE_LINE2":"2 53728  53.2196 303.7570 0001301  91.2878 268.8263 15.08836146 23392","INCLINATION":"53.2196","CENTER_NAME":"EARTH","LAUNCH_DATE":"2022-09-05","PERIAPSIS":"538.857","MEAN_ANOMALY":"268.8263","SEMIMAJOR_AXIS":"6917.892","ELEMENT_SET_NO":"999","OBJECT_TYPE":"PAYLOAD","SITE":"AFETR","TLE_LINE1":"1 53728U 22107AE  23030.92064160 -.00000348  00000-0 -37979-5 0  9990","RA_OF_ASC_NODE":"303.7570","RCS_SIZE":"LARGE","TIME_SYSTEM":"UTC","NORAD_CAT_ID":"53728","APOAPSIS":"540.657","EPHEMERIS_TYPE":"0","FILE":"3765849","MEAN_MOTION":"15.08836146","GP_ID":"224057877","REV_AT_EPOCH":"2339","ARG_OF_PERICENTER":"91.2878"},{"OBJECT_ID":"2022-107AF","EPOCH":"2023-01-30T20:51:33.859296","REF_FRAME":"TEME","DECAY_DATE":null,"MEAN_MOTION_DOT":"-0.00002015","BSTAR":"-0.00010855000000","MEAN_MOTION_DDOT":"0.0000000000000","OBJECT_NAME":"STARLINK-4651","MEAN_ELEMENT_THEORY":"SGP4","COUNTRY_CODE":"US","PERIOD":"95.437","TLE_LINE2":"2 53729  53.2185 304.1483 0001552  93.1128 267.0041 15.08845581 23417","ECCENTRICITY":"0.00015520","CLASSIFICATION_TYPE":"U","MEAN_ANOMALY":"267.0041","SEMIMAJOR_AXIS":"6917.863","INCLINATION":"53.2185","PERIAPSIS":"538.655","LAUNCH_DATE":"2022-09-05","CENTER_NAME":"EARTH","NORAD_CAT_ID":"53729","APOAPSIS":"540.802","TIME_SYSTEM":"UTC","RCS_SIZE":"LARGE","RA_OF_ASC_NODE":"304.1483","TLE_LINE1":"1 53729U 22107AF  23030.86914189 -.00002015  00000-0 -10855-3 0  9994","GP_ID":"224056636","REV_AT_EPOCH":"2341","ARG_OF_PERICENTER":"93.1128","MEAN_MOTION":"15.08845581","EPHEMERIS_TYPE":"0","FILE":"3765849","SITE":"AFETR","OBJECT_TYPE":"PAYLOAD","ELEMENT_SET_NO":"999"},{"GP_ID":"224056885","ARG_OF_PERICENTER":"89.2401","REV_AT_EPOCH":"2339","MEAN_MOTION":"15.08838533","FILE":"3765849","EPHEMERIS_TYPE":"0","APOAPSIS":"540.528","NORAD_CAT_ID":"53730","RCS_SIZE":"LARGE","RA_OF_ASC_NODE":"303.8062","TIME_SYSTEM":"UTC","TLE_LINE1":"1 53730U 22107AG  23030.92800850 -.00000254  00000-0  21225-5 0  9999","SITE":"AFETR","OBJECT_TYPE":"PAYLOAD","ELEMENT_SET_NO":"999","SEMIMAJOR_AXIS":"6917.885","MEAN_ANOMALY":"270.8720","PERIAPSIS":"538.972","LAUNCH_DATE":"2022-09-05","CENTER_NAME":"EARTH","INCLINATION":"53.2186","TLE_LINE2":"2 53730  53.2186 303.8062 0001125  89.2401 270.8720 15.08838533 23397","PERIOD":"95.438","ECCENTRICITY":"0.00011250","CLASSIFICATION_TYPE":"U","EPOCH":"2023-01-30T22:16:19.934400","OBJECT_ID":"2022-107AG","REF_FRAME":"TEME","DECAY_DATE":null,"MEAN_MOTION_DDOT":"0.0000000000000","OBJECT_NAME":"STARLINK-4641","MEAN_ELEMENT_THEORY":"SGP4","COUNTRY_CODE":"US","MEAN_MOTION_DOT":"-0.00000254","BSTAR":"0.00000212250000"},{"MEAN_ANOMALY":"283.6505","SEMIMAJOR_AXIS":"6917.865","INCLINATION":"53.2183","LAUNCH_DATE":"2022-09-05","PERIAPSIS":"538.929","CENTER_NAME":"EARTH","RCS_SIZE":"LARGE","RA_OF_ASC_NODE":"303.8758","TIME_SYSTEM":"UTC","NORAD_CAT_ID":"53731","APOAPSIS":"540.531","TLE_LINE1":"1 53731U 22107AH  23030.93906106  .00002600  00000-0  18136-3 0  9993","MEAN_MOTION":"15.08844968","ARG_OF_PERICENTER":"76.4616","GP_ID":"224030120","REV_AT_EPOCH":"2279","EPHEMERIS_TYPE":"0","FILE":"3765770","OBJECT_TYPE":"PAYLOAD","SITE":"AFETR","ELEMENT_SET_NO":"999","REF_FRAME":"TEME","EPOCH":"2023-01-30T22:32:14.875584","OBJECT_ID":"2022-107AH","DECAY_DATE":null,"BSTAR":"0.00018136000000","MEAN_MOTION_DOT":"0.00002600","COUNTRY_CODE":"US","MEAN_MOTION_DDOT":"0.0000000000000","OBJECT_NAME":"STARLINK-4636","MEAN_ELEMENT_THEORY":"SGP4","PERIOD":"95.437","TLE_LINE2":"2 53731  53.2183 303.8758 0001158  76.4616 283.6505 15.08844968 22794","ECCENTRICITY":"0.00011580","CLASSIFICATION_TYPE":"U"},{"PERIOD":"95.438","TLE_LINE2":"2 53732  53.2185 303.8239 0000986  89.8628 270.2478 15.08838157 23391","CLASSIFICATION_TYPE":"U","ECCENTRICITY":"0.00009860","DECAY_DATE":null,"OBJECT_ID":"2022-107AJ","EPOCH":"2023-01-30T22:21:38.642400","REF_FRAME":"TEME","MEAN_MOTION_DOT":"-0.00000690","BSTAR":"-0.00002528100000","MEAN_MOTION_DDOT":"0.0000000000000","MEAN_ELEMENT_THEORY":"SGP4","OBJECT_NAME":"STARLINK-4661","COUNTRY_CODE":"US","TLE_LINE1":"1 53732U 22107AJ  23030.93169725 -.00000690  00000-0 -25281-4 0  9991","NORAD_CAT_ID":"53732","APOAPSIS":"540.433","RCS_SIZE":"LARGE","RA_OF_ASC_NODE":"303.8239","TIME_SYSTEM":"UTC","EPHEMERIS_TYPE":"0","FILE":"3765849","REV_AT_EPOCH":"2339","GP_ID":"224057381","ARG_OF_PERICENTER":"89.8628","MEAN_MOTION":"15.08838157","ELEMENT_SET_NO":"999","SITE":"AFETR","OBJECT_TYPE":"PAYLOAD","MEAN_ANOMALY":"270.2478","SEMIMAJOR_AXIS":"6917.886","INCLINATION":"53.2185","CENTER_NAME":"EARTH","PERIAPSIS":"539.069","LAUNCH_DATE":"2022-09-05"},{"CLASSIFICATION_TYPE":"U","ECCENTRICITY":"0.00012110","PERIOD":"95.437","TLE_LINE2":"2 53733  53.2177 303.6209 0001211  93.4628 266.6502 15.08841719 22801","MEAN_MOTION_DOT":"0.00002499","BSTAR":"0.00017505000000","MEAN_MOTION_DDOT":"0.0000000000000","MEAN_ELEMENT_THEORY":"SGP4","OBJECT_NAME":"STARLINK-4574","COUNTRY_CODE":"US","DECAY_DATE":null,"OBJECT_ID":"2022-107AK","EPOCH":"2023-01-31T00:18:14.808960","REF_FRAME":"TEME","ELEMENT_SET_NO":"999","SITE":"AFETR","OBJECT_TYPE":"PAYLOAD","TLE_LINE1":"1 53733U 22107AK  23031.01267140  .00002499  00000-0  17505-3 0  9998","NORAD_CAT_ID":"53733","APOAPSIS":"540.578","TIME_SYSTEM":"UTC","RCS_SIZE":"LARGE","RA_OF_ASC_NODE":"303.6209","FILE":"3765772","EPHEMERIS_TYPE":"0","GP_ID":"224029993","ARG_OF_PERICENTER":"93.4628","REV_AT_EPOCH":"2280","MEAN_MOTION":"15.08841719","INCLINATION":"53.2177","CENTER_NAME":"EARTH","LAUNCH_DATE":"2022-09-05","PERIAPSIS":"538.902","MEAN_ANOMALY":"266.6502","SEMIMAJOR_AXIS":"6917.875"},{"REF_FRAME":"TEME","EPOCH":"2023-01-30T22:28:19.821792","OBJECT_ID":"2022-107AL","DECAY_DATE":null,"BSTAR":"-0.00004051700000","MEAN_MOTION_DOT":"-0.00000932","COUNTRY_CODE":"US","OBJECT_NAME":"STARLINK-4616","MEAN_MOTION_DDOT":"0.0000000000000","MEAN_ELEMENT_THEORY":"SGP4","PERIOD":"95.438","TLE_LINE2":"2 53734  53.2186 303.8581 0000875  95.4024 264.7068 15.08834690 22798","ECCENTRICITY":"0.00008750","CLASSIFICATION_TYPE":"U","MEAN_ANOMALY":"264.7068","SEMIMAJOR_AXIS":"6917.897","INCLINATION":"53.2186","LAUNCH_DATE":"2022-09-05","PERIAPSIS":"539.156","CENTER_NAME":"EARTH","RCS_SIZE":"LARGE","TIME_SYSTEM":"UTC","RA_OF_ASC_NODE":"303.8581","APOAPSIS":"540.367","NORAD_CAT_ID":"53734","TLE_LINE1":"1 53734U 22107AL  23030.93634053 -.00000932  00000-0 -40517-4 0  9992","MEAN_MOTION":"15.08834690","GP_ID":"224029995","REV_AT_EPOCH":"2279","ARG_OF_PERICENTER":"95.4024","EPHEMERIS_TYPE":"0","FILE":"3765772","OBJECT_TYPE":"PAYLOAD","SITE":"AFETR","ELEMENT_SET_NO":"999"},{"COUNTRY_CODE":"US","MEAN_MOTION_DDOT":"0.0000000000000","OBJECT_NAME":"STARLINK-4618","MEAN_ELEMENT_THEORY":"SGP4","BSTAR":"0.00012345000000","MEAN_MOTION_DOT":"0.00001677","REF_FRAME":"TEME","EPOCH":"2023-01-30T23:23:51.463680","OBJECT_ID":"2022-107AM","DECAY_DATE":null,"ECCENTRICITY":"0.00015370","CLASSIFICATION_TYPE":"U","TLE_LINE2":"2 53735  53.2173 313.3748 0001537  86.1692 273.9476 15.08841399 22665","PERIOD":"95.437","PERIAPSIS":"538.678","LAUNCH_DATE":"2022-09-05","CENTER_NAME":"EARTH","INCLINATION":"53.2173","SEMIMAJOR_AXIS":"6917.876","MEAN_ANOMALY":"273.9476","OBJECT_TYPE":"PAYLOAD","SITE":"AFETR","ELEMENT_SET_NO":"999","MEAN_MOTION":"15.08841399","ARG_OF_PERICENTER":"86.1692","GP_ID":"224031120","REV_AT_EPOCH":"2266","FILE":"3765827","EPHEMERIS_TYPE":"0","RCS_SIZE":"LARGE","TIME_SYSTEM":"UTC","RA_OF_ASC_NODE":"313.3748","NORAD_CAT_ID":"53735","APOAPSIS":"540.804","TLE_LINE1":"1 53735U 22107AM  23030.97490120  .00001677  00000-0  12345-3 0  9994"},{"TLE_LINE2":"2 53736  53.2184 304.1950 0001288  76.1848 283.9288 15.08839665 23415","PERIOD":"95.438","ECCENTRICITY":"0.00012880","CLASSIFICATION_TYPE":"U","EPOCH":"2023-01-30T21:02:10.321440","OBJECT_ID":"2022-107AN","REF_FRAME":"TEME","DECAY_DATE":null,"MEAN_ELEMENT_THEORY":"SGP4","MEAN_MOTION_DDOT":"0.0000000000000","OBJECT_NAME":"STARLINK-4652","COUNTRY_CODE":"US","MEAN_MOTION_DOT":"0.00001699","BSTAR":"0.00012482000000","GP_ID":"224057878","REV_AT_EPOCH":"2341","ARG_OF_PERICENTER":"76.1848","MEAN_MOTION":"15.08839665","EPHEMERIS_TYPE":"0","FILE":"3765849","NORAD_CAT_ID":"53736","APOAPSIS":"540.637","TIME_SYSTEM":"UTC","RCS_SIZE":"LARGE","RA_OF_ASC_NODE":"304.1950","TLE_LINE1":"1 53736U 22107AN  23030.87650835  .00001699  00000-0  12482-3 0  9991","SITE":"AFETR","OBJECT_TYPE":"PAYLOAD","ELEMENT_SET_NO":"999","SEMIMAJOR_AXIS":"6917.881","MEAN_ANOMALY":"283.9288","PERIAPSIS":"538.855","LAUNCH_DATE":"2022-09-05","CENTER_NAME":"EARTH","INCLINATION":"53.2184"}];
